KAZSCISAT-1             
1 43787U 18099AF  23016.13665774  .00018280  00000+0  14791-2 0  9999
2 43787  97.5950  82.2954 0010116 272.4460  87.5605 14.99767998224952
EAGLET-I                
1 43790U 18099AJ  23016.14998141  .00006183  00000+0  53197-3 0  9994
2 43790  97.5993  83.3825 0011314 280.4225  79.5722 14.97689073224610
CAPELLA-1-DENALI        
1 43791U 18099AK  23015.97470729  .01343926  00000+0  11891-1 0  9995
2 43791  97.6277 105.4285 0011499 301.7279  58.2859 15.65615845225969
ESEO                    
1 43792U 18099AL  23015.91874532  .00004301  00000+0  38052-3 0  9990
2 43792  97.5926  82.0135 0011401 277.2610  82.7315 14.96758941224600
CSIM-FD                 
1 43793U 18099AM  23015.75410960  .00011821  00000+0  93741-3 0  9995
2 43793  97.6058  84.3646 0015183 269.6793  90.2691 15.00593143224695
HAWK-B                  
1 43794U 18099AN  23015.63661364  .00004570  00000+0  39155-3 0  9991
2 43794  97.5938  83.0878 0013649 279.7467  80.2214 14.97966202224886
ORBWEAVER 1             
1 43795U 18099AP  23015.92749766  .00026614  00000+0  19783-2 0  9994
2 43795  97.5966  86.0257 0002363 227.6173 132.4853 15.02959796225066
THEA                    
1 43796U 18099AQ  23016.12105715  .00011033  00000+0  91260-3 0  9998
2 43796  97.5987  84.2860 0012927 250.9893 108.9930 14.99014390224964
SKYSAT-C12              
1 43797U 18099AR  23016.14954508  .00029195  00000+0  72604-3 0  9992
2 43797  97.1013  81.6957 0001919  97.3933 262.7532 15.40244693230182
ASTROCAST 0.1           
1 43798U 18099AS  23015.76188900  .00010507  00000+0  86010-3 0  9998
2 43798  97.5995  83.9073 0011198 258.3438 101.6528 14.99443955224903
HAWK-C                  
1 43799U 18099AT  23015.90361892  .00006626  00000+0  56518-3 0  9995
2 43799  97.5934  83.2517 0013548 278.4088  81.5598 14.97973203225678
ICEYE-X2                
1 43800U 18099AU  23016.10053143  .00004656  00000+0  40103-3 0  9992
2 43800  97.5976  82.4580 0012394 272.5796  87.4063 14.97761851224852
2018-099AV              
1 43801U 18099AV  23016.17419149  .00013998  00000+0  11048-2 0  9996
2 43801  97.5870  83.7384 0008940 238.3527 121.6829 15.00792049224978
SKYSAT-C13              
1 43802U 18099AW  23015.73816258  .00022033  00000+0  53361-3 0  9995
2 43802  97.1289  80.5388 0001606 102.8746 257.2680 15.41105540229614
JY1SAT (JO-97)          
1 43803U 18099AX  23015.72943776  .00009125  00000+0  76573-3 0  9998
2 43803  97.5952  82.2838 0012092 274.4738  85.5104 14.98518901224846
SUOMI-100               
1 43804U 18099AY  23015.69897826  .00007549  00000+0  63733-3 0  9991
2 43804  97.5937  82.1248 0013685 275.5269  84.4392 14.98327519224844
AL-FARABI 2             
1 43805U 18099AZ  23016.11549783  .00010373  00000+0  85123-3 0  9992
2 43805  97.5962  83.3091 0013125 268.3025  91.6766 14.99333753224945
2018-099BA              
1 43806U 18099BA  23016.13646906  .00006797  00000+0  58525-3 0  9991
2 43806  97.5939  81.9560 0012606 272.4917  87.4993 14.97608157224579
EUCROPIS                
1 43807U 18099BB  23015.76657347  .00006075  00000+0  51639-3 0  9999
2 43807  97.6005  83.0458 0011420 271.2255  88.7659 14.98165120224267
POLAR SCOUT YUKON       
1 43808U 18099BC  23015.90154580  .00010644  00000+0  88812-3 0  9997
2 43808  97.6010  83.5720 0011055 279.9798  80.0177 14.98704498224595
CENTAURI-1              
1 43809U 18099BD  23015.92194195  .00007983  00000+0  68393-3 0  9990
2 43809  97.5954  82.5611 0012854 275.4784  84.4972 14.97746825224561
2018-099BE              
1 43810U 18099BE  23016.15739779  .00003577  00000+0  31289-3 0  9990
2 43810  97.5801  80.5167 0012736 271.8227  88.1560 14.97302203224448
NEXTSAT-1               
1 43811U 18099BF  23015.91074083  .00005593  00000+0  48919-3 0  9992
2 43811  97.5949  82.2571 0011377 272.9303  87.0617 14.97084534224408
GLOBAL-2                
1 43812U 18099BG  23016.10944777  .00005669  00000+0  49401-3 0  9992
2 43812  97.5918  82.0718 0011812 275.8044  84.1831 14.97221867224468
BRIO                    
1 43813U 18099BH  23016.13442315  .00017434  00000+0  14050-2 0  9991
2 43813  97.6142  86.4332 0009526 252.7691 107.2490 14.99937507224678
FALCONSAT-6             
1 43815U 18099BK  23015.91607255  .00009622  00000+0  71192-3 0  9995
2 43815  97.6385  85.6063 0030276 265.0774  94.6994 15.03013707224622
SPACEBEE-7              
1 43816U 18099BL  23015.69895816  .00010356  00000+0  84796-3 0  9993
2 43816  97.6013  83.8538 0012322 262.7046  97.2777 14.99430191224437
SPACEBEE-5              
1 43817U 18099BM  23015.61060799  .00036330  00000+0  24603-2 0  9990
2 43817  97.6129  88.4463 0004271 254.5333 105.5422 15.06377579224648
SPACEBEE-6              
1 43818U 18099BN  23015.92958483  .00021408  00000+0  16584-2 0  9990
2 43818  97.6123  85.4939 0014210 275.6065  84.3539 15.01362594224681
EXCITE                  
1 43819U 18099BP  23015.89180470  .00004316  00000+0  38103-3 0  9991
2 43819  97.5921  81.6331 0011890 279.2992  80.6885 14.96837963224415
SEAHAWK-1               
1 43820U 18099BQ  23016.11348430  .00008877  00000+0  75393-3 0  9999
2 43820  97.5900  82.0822 0010674 261.8073  98.1939 14.98070524224306
GEO-KOMPSAT-2A          
1 43823U 18100A   23015.95538524 -.00000322  00000+0  00000+0 0  9998
2 43823   0.0292 153.1127 0000686 263.4418 170.7610  1.00271896 15140
GSAT-11                 
1 43824U 18100B   23015.83595726 -.00000055  00000+0  00000+0 0  9996
2 43824   0.0514 256.1564 0002350 185.6343  48.1431  1.00272392 14970
SAUDISAT 5A             
1 43831U 18102A   23016.18424920  .00005521  00000+0  34070-3 0  9992
2 43831  97.4746  89.4001 0014189 161.7321 251.2747 15.10234400226271
SAUDISAT 5B             
1 43833U 18102C   23016.14995159  .00006485  00000+0  39424-3 0  9995
2 43833  97.4779  90.5110 0015033 168.5315 275.4790 15.10700198226324
TOMSAT R3 (AEROCUBE 11B)
1 43849U 18104A   23015.71019601  .00036605  00000+0  10900-2 0  9999
2 43849  85.0294 269.0609 0012393 172.4705 187.6732 15.34463521227171
SHIELDS 1               
1 43850U 18104B   23015.73359756  .00009792  00000+0  38390-3 0  9992
2 43850  85.0269 271.1754 0012529 191.9819 168.1129 15.25540227226849
ELECTRON KICK STAGE R/B 
1 43851U 18104C   23015.96000538  .00057870  00000+0  15488-2 0  9991
2 43851  85.0293 267.8158 0010372 152.8253 207.3543 15.37752017227313
STF-1                   
1 43852U 18104D   23016.18085380  .00037817  00000+0  12078-2 0  9996
2 43852  85.0286 270.2750 0009907 195.1532 164.9421 15.32259717227041
2018-104F               
1 43854U 18104F   23015.95674307  .00060850  00000+0  15658-2 0  9995
2 43854  85.0213 265.6335 0012407 149.3228 210.8751 15.38928739227367
CHOMPTT                 
1 43855U 18104G   23015.95182583  .00030788  00000+0  98420-3 0  9992
2 43855  85.0326 269.0502 0014212 156.9215 203.2673 15.32198303227205
CP11 (ISX)              
1 43856U 18104H   23015.69407702  .00024618  00000+0  84353-3 0  9992
2 43856  85.0286 271.6407 0009966 208.8140 151.2558 15.30025447226870
DAVINCI                 
1 43857U 18104J   23016.15949156  .00471965  00000+0  32160-2 0  9998
2 43857  85.0104 262.4314 0007740 118.9028 241.3019 15.73518086227775
2018-104K               
1 43858U 18104K   23015.72265481  .00022231  00000+0  76463-3 0  9996
2 43858  85.0280 270.6166 0011925 193.3039 166.7895 15.29884756226958
2018-104L               
1 43859U 18104L   23015.95604962  .00027596  00000+0  95170-3 0  9998
2 43859  85.0267 269.9411 0010105 183.9286 176.1883 15.29807699226993
TOMSAT EAGLESCOUT       
1 43861U 18104N   23015.71603604  .00033436  00000+0  10347-2 0  9999
2 43861  85.0377 271.1893 0012013 174.1690 185.9701 15.33257847227108
GSAT-7A                 
1 43864U 18105A   23016.04979809  .00000048  00000+0  00000+0 0  9998
2 43864   0.0627 109.0379 0002070 171.9817 274.9090  1.00272347 14938
COSMOS 2533             
1 43867U 18107A   23013.81163863 -.00000018  00000+0  00000+0 0  9998
2 43867   0.0324 118.4329 0000119 296.9179  59.8555  1.00274772 14889
HONGYUN 1               
1 43871U 18108A   23016.11248182  .00000019  00000+0  10000-3 0  9993
2 43871  99.8667  38.8686 0011773 223.3106 136.7099 13.50521260200603
NAVSTAR 77 (USA 289)    
1 43873U 18109A   23015.77454608  .00000041  00000+0  00000+0 0  9999
2 43873  55.1341 141.5128 0022972 189.3307 317.3661  2.00557922 30036
TJS-3                   
1 43874U 18110A   23015.89880676 -.00000323  00000+0  00000+0 0  9997
2 43874   0.0311 153.3620 0000530 282.3269 126.9074  1.00443837 14906
KANOPUS-V 5             
1 43876U 18111A   23016.21898704  .00004733  00000+0  21641-3 0  9994
2 43876  97.4224 286.7127 0001859  79.1003  43.4334 15.21021854222886
KANOPUS-V 6             
1 43877U 18111B   23016.25723780  .00004862  00000+0  22204-3 0  9999
2 43877  97.4225 286.7584 0001875  84.1077  30.5034 15.21051176222884
ISAT                    
1 43879U 18111D   23015.71681765  .00009540  00000+0  77675-3 0  9997
2 43879  97.6520 282.5073 0012701 327.1865  32.8568 14.99666879221464
UWE-4                   
1 43880U 18111E   23015.70334997  .00009176  00000+0  74586-3 0  9993
2 43880  97.6610 283.3257 0011938 341.2433  18.8349 14.99752141221490
D-STAR ONE (SPARROW)    
1 43881U 18111F   23015.69294841  .00011022  00000+0  88864-3 0  9992
2 43881  97.6619 283.6360 0011175 347.9513  12.1441 15.00018319221500
LEMUR-2-CHRISTINAHOLT   
1 43882U 18111G   23015.67111578  .00013449  00000+0  10358-2 0  9993
2 43882  97.6663 285.2315 0008371 299.7510  60.2881 15.01743195221581
LEMUR-2-TINYKEV         
1 43883U 18111H   23015.69272012  .00017759  00000+0  13436-2 0  9995
2 43883  97.6432 285.3460 0010130 296.2973  63.7211 15.02342260221606
LEMUR-2-REMY-COLTON     
1 43884U 18111J   23016.04621011  .00017668  00000+0  13472-2 0  9992
2 43884  97.6515 286.3597 0001229  11.1035 349.0217 15.02086544219684
